      2.10          N: GNSS NAV DATA                        RINEX VERSION / TYPE
fic2rin                                 11/09/2019 00:19:16 PGM / RUN BY / DATE
                                                            END OF HEADER
 8 19 11  8  4  0  0.0-1.262081786990e-05-1.250555214938e-12 0.000000000000e+00
    9.700000000000e+01-1.053125000000e+01 4.144815505346e-09 1.069925230452e+00
   -5.047768354416e-07 4.644816275686e-03 1.034885644913e-05 5.153587064743e+03
    4.464000000000e+05 8.568167686462e-08-6.462145881057e-01 2.048909664154e-08
    9.703397769008e-01 1.803750000000e+02-2.360850832628e-01-7.876756669960e-09
   -2.010798043524e-10 1.000000000000e+00 2.078000000000e+03 0.000000000000e+00
    3.400000000000e+00 0.000000000000e+00 5.122274160385e-09 9.700000000000e+01
    4.392000000000e+05 4.000000000000e+00
 6 19 11  8  4  0  0.0-1.166979782283e-04-1.216449163621e-11 0.000000000000e+00
    7.600000000000e+01 4.303125000000e+01 4.310179536278e-09-9.479724689841e-01
    2.255663275719e-06 1.508216490038e-03 6.524845957756e-06 5.153687955856e+03
    4.464000000000e+05-2.607703208923e-08 4.130049595658e-01-3.725290298462e-09
    9.774547784578e-01 2.635625000000e+02-1.202410915778e+00-8.060692903071e-09
    3.250135381184e-10 1.000000000000e+00 2.078000000000e+03 0.000000000000e+00
    2.400000000000e+00 0.000000000000e+00 4.656612873077e-09 7.600000000000e+01
    4.392000000000e+05 4.000000000000e+00
 4 19 11  8  4  0  0.0-6.796792149544e-06-3.865352482535e-12 0.000000000000e+00
    2.240000000000e+02-6.437500000000e+00 4.249105563731e-09-2.248361154250e+00
   -2.924352884293e-07 1.324915210716e-03 1.174025237560e-05 5.150610610962e+03
    4.464000000000e+05 4.097819328308e-08 2.541267655141e+00 4.284083843231e-08
    9.600622361143e-01 1.498750000000e+02-1.284664214781e+00-7.867113411137e-09
    1.428630936784e-11 1.000000000000e+00 2.078000000000e+03 0.000000000000e+00
    2.400000000000e+00 6.300000000000e+01-4.190951585770e-09 2.240000000000e+02
    4.392000000000e+05 4.000000000000e+00
 9 19 11  8  4  0  0.0-7.772585377097e-05-9.777068044059e-12 0.000000000000e+00
    5.500000000000e+01-1.362500000000e+01 4.419826960677e-09 1.344535071980e+00
   -6.891787052155e-07 1.606997917406e-03 1.184269785881e-05 5.153571681976e+03
    4.464000000000e+05 1.490116119385e-08 2.494853776125e+00-1.676380634308e-08
    9.526921469948e-01 1.448437500000e+02 1.673388066758e+00-7.958545791091e-09
   -1.785788670980e-11 1.000000000000e+00 2.078000000000e+03 0.000000000000e+00
    2.400000000000e+00 0.000000000000e+00 1.396983861923e-09 5.500000000000e+01
    4.392000000000e+05 4.000000000000e+00
15 19 11  8  4  0  0.0-2.742102369666e-04 2.728484105319e-12 0.000000000000e+00
    7.700000000000e+01-2.500000000000e+01 5.116641700093e-09-3.590260634481e-02
   -1.169741153717e-06 1.197069231421e-02 1.029297709465e-05 5.153594717026e+03
    4.464000000000e+05 2.793967723846e-08 2.410629116013e+00 1.993030309677e-07
    9.281341368094e-01 1.649687500000e+02 8.346772640241e-01-8.435708523977e-09
   -8.036049019412e-11 1.000000000000e+00 2.078000000000e+03 0.000000000000e+00
    2.400000000000e+00 0.000000000000e+00-1.117587089539e-08 7.700000000000e+01
    4.392000000000e+05 4.000000000000e+00
13 19 11  8  4  0  0.0-3.415532410145e-05 2.273736754432e-12 0.000000000000e+00
    5.400000000000e+01 1.218750000000e+00 4.154101606435e-09-2.456875678162e-02
    5.029141902924e-08 4.010432399809e-03 1.110695302486e-05 5.153672254562e+03
    4.464000000000e+05-2.048909664154e-08 2.634572887690e+00 4.470348358154e-08
    9.681144005478e-01 1.710937500000e+02 1.191769842775e+00-7.821397221160e-09
    4.357324357192e-11 1.000000000000e+00 2.078000000000e+03 0.000000000000e+00
    2.400000000000e+00 0.000000000000e+00-1.117587089539e-08 5.400000000000e+01
    4.392000000000e+05 4.000000000000e+00
14 19 11  8  4  0  0.0-5.172891542315e-05 2.160049916711e-12 0.000000000000e+00
    4.700000000000e+01 3.250000000000e+00 4.352681306648e-09 5.531874167849e-01
    8.009374141693e-08 1.074683107436e-02 1.112557947636e-05 5.153765346527e+03
    4.464000000000e+05-2.048909664154e-07 2.589042554140e+00 3.725290298462e-09
    9.606593758676e-01 1.663125000000e+02-1.934671425322e+00-8.032477442070e-09
   -5.393081786361e-11 1.000000000000e+00 2.078000000000e+03 0.000000000000e+00
    2.400000000000e+00 0.000000000000e+00-9.778887033463e-09 4.700000000000e+01
    4.392000000000e+05 4.000000000000e+00
11 19 11  8  4  0  0.0-4.545645788312e-04 1.114131009672e-11 0.000000000000e+00
    7.300000000000e+01 5.393750000000e+01 5.434869241262e-09-2.137505627049e+00
    2.909451723099e-06 1.644649100490e-02 8.845701813698e-06 5.153746185303e+03
    4.464000000000e+05 7.636845111847e-08-3.997441499198e-02 3.781169652939e-07
    9.114044733689e-01 1.818437500000e+02 1.967134676152e+00-8.387492229861e-09
    2.117945363783e-10 1.000000000000e+00 2.078000000000e+03 0.000000000000e+00
    2.400000000000e+00 0.000000000000e+00-1.210719347000e-08 7.300000000000e+01
    4.392000000000e+05 4.000000000000e+00
12 19 11  8  4  0  0.0 1.858021132648e-04-3.979039320257e-12 0.000000000000e+00
    4.500000000000e+01-4.000000000000e+01 4.405540651309e-09-2.602050068298e+00
   -2.020969986916e-06 7.526958244853e-03 5.058944225311e-06 5.153553909302e+03
    4.464000000000e+05 1.415610313416e-07-1.610355110668e+00-6.891787052155e-08
    9.805432867180e-01 2.918750000000e+02 1.102512984388e+00-7.996761668650e-09
   -2.150089559860e-10 1.000000000000e+00 2.078000000000e+03 0.000000000000e+00
    2.400000000000e+00 0.000000000000e+00-1.257285475731e-08 4.500000000000e+01
    4.392000000000e+05 4.000000000000e+00
31 19 11  8  4  0  0.0-1.720152795315e-06-2.614797267597e-12 0.000000000000e+00
    8.000000000000e+01 6.918750000000e+01 4.773413117531e-09-2.315195521986e+00
    3.440305590630e-06 9.512089076452e-03 6.610527634621e-06 5.153728126526e+03
    4.464000000000e+05-1.117587089539e-07-2.698902549496e+00-1.564621925354e-07
    9.592015180219e-01 2.558750000000e+02 5.704954361105e-02-8.166768750128e-09
    3.839445642608e-10 1.000000000000e+00 2.078000000000e+03 0.000000000000e+00
    2.400000000000e+00 0.000000000000e+00-1.350417733192e-08 8.000000000000e+01
    4.392000000000e+05 4.000000000000e+00
27 19 11  8  4  0  0.0-1.129931770265e-04-1.193711796077e-11 0.000000000000e+00
    6.800000000000e+01-1.250000000000e+01 4.033739450011e-09 8.619838090856e-01
   -4.991888999939e-07 7.323102094233e-03 1.025013625622e-05 5.153660274506e+03
    4.464000000000e+05 3.725290298462e-09-6.335522450797e-01 7.823109626770e-08
    9.786971557849e-01 1.898125000000e+02 5.034707251766e-01-7.859255940985e-09
   -2.207234797332e-10 1.000000000000e+00 2.078000000000e+03 0.000000000000e+00
    2.400000000000e+00 0.000000000000e+00 1.862645149231e-09 6.800000000000e+01
    4.392000000000e+05 4.000000000000e+00
19 19 11  8  4  0  0.0-2.427687868476e-04 5.229594535194e-12 0.000000000000e+00
    6.900000000000e+01-6.750000000000e+00 3.811230181606e-09-2.769606758336e+00
   -2.868473529816e-07 9.236910264008e-03 1.121498644352e-05 5.153663093567e+03
    4.464000000000e+05 1.732259988785e-07-5.304709468956e-01 8.940696716309e-08
    9.824365338536e-01 1.715937500000e+02 1.525604414473e+00-7.565315125741e-09
   -6.071681481333e-12 1.000000000000e+00 2.078000000000e+03 0.000000000000e+00
    2.400000000000e+00 0.000000000000e+00-1.536682248116e-08 6.900000000000e+01
    4.392000000000e+05 4.000000000000e+00
17 19 11  8  4  0  0.0 1.589544117451e-04 6.934897101019e-12 0.000000000000e+00
    3.900000000000e+01-1.562500000000e+01 3.848731743697e-09 7.806024824038e-01
   -7.767230272293e-07 1.332730636932e-02 1.147761940956e-05 5.153602766037e+03
    4.464000000000e+05-1.862645149231e-07-5.764060757296e-01-1.862645149231e-08
    9.844166358985e-01 1.757187500000e+02-1.693038144783e+00-7.922472859938e-09
   -1.503634060966e-10 1.000000000000e+00 2.078000000000e+03 0.000000000000e+00
    2.400000000000e+00 0.000000000000e+00-1.117587089539e-08 3.900000000000e+01
    4.392000000000e+05 4.000000000000e+00
32 19 11  8  4  0  0.0 1.179026439786e-04 1.227817847393e-11 0.000000000000e+00
    3.600000000000e+01-6.531250000000e+00 4.382682556320e-09 1.624847274554e+00
   -3.650784492493e-07 3.268692060374e-03 1.085363328457e-05 5.153650541306e+03
    4.464000000000e+05-7.450580596924e-08 2.502319404036e+00 2.048909664154e-08
    9.568952466879e-01 1.645937500000e+02-2.537285523372e+00-7.934259065166e-09
   -5.821671067396e-11 1.000000000000e+00 2.078000000000e+03 0.000000000000e+00
    2.400000000000e+00 0.000000000000e+00 4.656612873077e-10 3.600000000000e+01
    4.392000000000e+05 4.000000000000e+00
20 19 11  8  4  0  0.0 5.274103023112e-04 1.136868377216e-13 0.000000000000e+00
    4.400000000000e+01-4.112500000000e+01 5.332364971548e-09-1.744897903122e+00
   -2.084299921989e-06 5.045836092904e-03 4.822388291359e-06 5.153619235992e+03
    4.464000000000e+05-1.043081283569e-07 1.335676517843e+00-1.303851604462e-08
    9.316712503615e-01 2.729687500000e+02 2.479044258898e+00-8.586071930074e-09
   -6.607418082628e-11 1.000000000000e+00 2.078000000000e+03 0.000000000000e+00
    2.400000000000e+00 0.000000000000e+00-8.381903171539e-09 4.400000000000e+01
    4.392000000000e+05 4.000000000000e+00
30 19 11  8  4  0  0.0-7.904227823019e-05-8.412825991400e-12 0.000000000000e+00
    1.080000000000e+02 7.300000000000e+01 5.194859243882e-09-2.043413016880e+00
    3.559514880180e-06 4.166123224422e-03 6.293877959251e-06 5.153731622696e+03
    4.464000000000e+05 1.676380634308e-08-2.687927604940e+00-8.381903171539e-08
    9.400855806464e-01 2.495312500000e+02-2.907570940206e+00-8.424279476483e-09
    4.050168705784e-10 1.000000000000e+00 2.078000000000e+03 0.000000000000e+00
    2.400000000000e+00 0.000000000000e+00 3.725290298462e-09 1.080000000000e+02
    4.392000000000e+05 4.000000000000e+00
